DMSP 5D-3 F16 (USA 172) 
1 28054U 03048A   26164.92177207  .00000011  00000+0  29397-4 0  9993
2 28054  98.9891 188.7285 0007602 148.6894 328.6660 14.14482856169021
METEOSAT-9 (MSG-2)      
1 28912U 05049B   26164.84223331  .00000126  00000+0  00000+0 0  9992
2 28912   9.3538  54.2002 0001543 346.3460 210.4526  1.00270562  6968
DMSP 5D-3 F17 (USA 191) 
1 29522U 06050A   26164.91697592  .00000037  00000+0  41559-4 0  9995
2 29522  98.7378 171.5540 0011239  67.8906 292.3460 14.14992677 11962
FENGYUN 3A              
1 32958U 08026A   26164.80508458  .00000056  00000+0  46922-4 0  9997
2 32958  98.6883 105.7015 0009459 132.4960 227.7017 14.19570497934922
GOES 14                 
1 35491U 09033A   26164.93299236 -.00000270  00000+0  00000+0 0  9997
2 35491   1.6815  83.0799 0001714  10.3122 288.4310  1.00111819  6557
DMSP 5D-3 F18 (USA 210) 
1 35951U 09057A   26164.95885364  .00000223  00000+0  13833-3 0  9998
2 35951  98.9037 145.7350 0009855 259.7760 100.2302 14.14895163859135
EWS-G2 (GOES 15)        
1 36411U 10008A   26164.94561250  .00000027  00000+0  00000+0 0  9992
2 36411   1.2684  82.9143 0005351  41.5974 181.8413  1.00275715 59603
COMS 1                  
1 36744U 10032A   26164.85864462  .00000003  00000+0  00000+0 0  9993
2 36744   4.7961  75.3929 0011446  11.6277 210.9948  0.99162789 51053
FENGYUN 3B              
1 37214U 10059A   26164.99107850  .00000284  00000+0  17007-3 0  9991
2 37214  98.9626 210.9918 0021777 193.2491 284.2681 14.14841423806975
SUOMI NPP               
1 37849U 11061A   26164.95721161  .00000049  00000+0  44125-4 0  9993
2 37849  98.7954 105.8553 0001714  14.4796 345.6429 14.19516754757988
METEOSAT-10 (MSG-3)     
1 38552U 12035B   26164.90459367  .00000002  00000+0  00000+0 0  9996
2 38552   4.6637  61.0338 0001425 328.4329 198.7015  1.00276226 50827
METOP-B                 
1 38771U 12049A   26164.95162334  .00000100  00000+0  65477-4 0  9997
2 38771  98.6505 216.5152 0002429  27.6201 332.5105 14.21431881712808
INSAT-3D                
1 39216U 13038B   26164.93013235 -.00000331  00000+0  00000+0 0  9997
2 39216   1.9175  82.5789 0000558 308.0873 335.9433  1.00270661 47040
FENGYUN 3C              
1 39260U 13052A   26164.93418016  .00000062  00000+0  52747-4 0  9998
2 39260  98.4985 138.9583 0015401  36.6093 323.6131 14.15754435658108
METEOR-M 2              
1 40069U 14037A   26164.90766049  .00000238  00000+0  12798-3 0  9996
2 40069  98.5105 140.7616 0006842  52.4205 307.7594 14.21461349618850
HIMAWARI-8              
1 40267U 14060A   26164.93238569 -.00000266  00000+0  00000+0 0  9997
2 40267   0.0084 313.3740 0000978 133.4089 291.7739  1.00272750 42723
FENGYUN 2G              
1 40367U 14090A   26164.78685799 -.00000297  00000+0  00000+0 0  9999
2 40367   5.6288  72.8570 0003976 153.7441  58.4326  1.00273878 41964
METEOSAT-11 (MSG-4)     
1 40732U 15034A   26164.90641367  .00000072  00000+0  00000+0 0  9991
2 40732   3.1935  71.1295 0001767   9.2977 157.6657  1.00279333  7180
ELEKTRO-L 2             
1 41105U 15074A   26163.97488203 -.00000109  00000+0  00000+0 0  9996
2 41105   6.6819  70.5757 0000736 255.3930 271.7863  1.00270779 38465
SENTINEL-3A             
1 41335U 16011A   26164.92045601  .00000106  00000+0  61917-4 0  9995
2 41335  98.6249 232.3509 0001384 102.7487 257.3848 14.26739157537596
INSAT-3DR               
1 41752U 16054A   26164.92170762 -.00000067  00000+0  00000+0 0  9990
2 41752   0.0977  86.8174 0010626 187.1290  34.0755  1.00270831 35780
HIMAWARI-9              
1 41836U 16064A   26164.93238569 -.00000265  00000+0  00000+0 0  9995
2 41836   0.0479 148.3842 0000810 350.9423 239.3458  1.00270150 35175
GOES 16                 
1 41866U 16071A   26164.88370873 -.00000081  00000+0  00000+0 0  9991
2 41866   0.3323  85.5371 0000209 285.5683 104.5318  1.00270023 35077
FENGYUN 4A              
1 41882U 16077A   26164.92900567 -.00000349  00000+0  00000+0 0  9996
2 41882   2.3131  80.3232 0008681 152.7745 127.3621  1.00270325 34893
CYGFM05                 
1 41884U 16078A   26164.71624327  .00024006  00000+0  32685-3 0  9996
2 41884  34.9574 283.5706 0006752 115.6149 244.5273 15.56530665528214
CYGFM04                 
1 41885U 16078B   26164.63366532  .00029269  00000+0  33168-3 0  9992
2 41885  34.9325 251.9875 0006261 161.5646 198.5308 15.61331969528446
CYGFM02                 
1 41886U 16078C   26164.64112449  .00034896  00000+0  35159-3 0  9994
2 41886  34.9406 246.5765 0007226 162.7791 197.3182 15.64293881528610
CYGFM01                 
1 41887U 16078D   26164.70646843  .00024516  00000+0  32548-3 0  9999
2 41887  34.9405 284.7218 0006544 108.5594 251.5842 15.57202195528164
CYGFM08                 
1 41888U 16078E   26164.67190044  .00028443  00000+0  34112-3 0  9995
2 41888  34.9434 264.6224 0007876 142.8564 217.2707 15.59850919528421
CYGFM07                 
1 41890U 16078G   26164.95123539  .00028500  00000+0  34043-3 0  9991
2 41890  34.9447 251.1080 0006730 163.9910 196.1029 15.59966765528492
CYGFM03                 
1 41891U 16078H   26164.66624452  .00027393  00000+0  32763-3 0  9996
2 41891  34.9403 254.9438 0006041 147.8515 212.2580 15.59943966528423
