OBJECT_NAME,OBJECT_ID,EPOCH,MEAN_MOTION,ECCENTRICITY,INCLINATION,RA_OF_ASC_NODE,ARG_OF_PERICENTER,MEAN_ANOMALY,EPHEMERIS_TYPE,CLASSIFICATION_TYPE,NORAD_CAT_ID,ELEMENT_SET_NO,REV_AT_EPOCH,BSTAR,MEAN_MOTION_DOT,MEAN_MOTION_DDOT
DMSP 5D-3 F16 (USA 172),2003-048A,2026-06-13T22:07:21.106848,14.14482856,.00076027,98.9891,188.7285,148.6894,328.6660,0,U,28054,999,16902,.29397257E-4,.11E-6,0
METEOSAT-9 (MSG-2),2005-049B,2026-06-13T20:12:48.957984,1.00270562,.00015434,9.3538,54.2002,346.3460,210.4526,0,U,28912,999,696,0,.126E-5,0
DMSP 5D-3 F17 (USA 191),2006-050A,2026-06-13T22:00:26.719488,14.14992677,.00112398,98.7378,171.5540,67.8906,292.3460,0,U,29522,999,1196,.41558754E-4,.37E-6,0
FENGYUN 3A,2008-026A,2026-06-13T19:19:19.307712,14.19570497,.00094596,98.6883,105.7015,132.4960,227.7017,0,U,32958,999,93492,.46921523E-4,.56E-6,0
GOES 14,2009-033A,2026-06-13T22:23:30.539904,1.00111819,.0001714,1.6815,83.0799,10.3122,288.4310,0,U,35491,999,655,0,-.27E-5,0
DMSP 5D-3 F18 (USA 210),2009-057A,2026-06-13T23:00:44.954496,14.14895163,.00098553,98.9037,145.7350,259.7760,100.2302,0,U,35951,999,85913,.13833021E-3,.223E-5,0
EWS-G2 (GOES 15),2010-008A,2026-06-13T22:41:40.920000,1.00275715,.00053513,1.2684,82.9143,41.5974,181.8413,0,U,36411,999,5960,0,.27E-6,0
COMS 1,2010-032A,2026-06-13T20:36:26.895168,0.99162789,.00114466,4.7961,75.3929,11.6277,210.9948,0,U,36744,999,5105,0,.3E-7,0
FENGYUN 3B,2010-059A,2026-06-13T23:47:09.182400,14.14841423,.00217777,98.9626,210.9918,193.2491,284.2681,0,U,37214,999,80697,.17007034E-3,.284E-5,0
SUOMI NPP,2011-061A,2026-06-13T22:58:23.083104,14.19516754,.00017149,98.7954,105.8553,14.4796,345.6429,0,U,37849,999,75798,.44124833E-4,.49E-6,0
METEOSAT-10 (MSG-3),2012-035B,2026-06-13T21:42:36.893088,1.00276226,.00014255,4.6637,61.0338,328.4329,198.7015,0,U,38552,999,5082,0,.2E-7,0
METOP-B,2012-049A,2026-06-13T22:50:20.256576,14.21431881,.00024291,98.6505,216.5152,27.6201,332.5105,0,U,38771,999,71280,.65476916E-4,.1E-5,0
INSAT-3D,2013-038B,2026-06-13T22:19:23.435040,1.00270661,.00005581,1.9175,82.5789,308.0873,335.9433,0,U,39216,999,4704,0,-.331E-5,0
FENGYUN 3C,2013-052A,2026-06-13T22:25:13.165824,14.15754435,.00154019,98.4985,138.9583,36.6093,323.6131,0,U,39260,999,65810,.52747104E-4,.62E-6,0
METEOR-M 2,2014-037A,2026-06-13T21:47:01.866336,14.21461349,.00068421,98.5105,140.7616,52.4205,307.7594,0,U,40069,999,61885,.12798329E-3,.238E-5,0
HIMAWARI-8,2014-060A,2026-06-13T22:22:38.123616,1.00272750,.00009789,0.0084,313.3740,133.4089,291.7739,0,U,40267,999,4272,0,-.266E-5,0
FENGYUN 2G,2014-090A,2026-06-13T18:53:04.530336,1.00273878,.00039762,5.6288,72.8570,153.7441,58.4326,0,U,40367,999,4196,0,-.297E-5,0
METEOSAT-11 (MSG-4),2015-034A,2026-06-13T21:45:14.141088,1.00279333,.0001767,3.1935,71.1295,9.2977,157.6657,0,U,40732,999,718,0,.72E-6,0
ELEKTRO-L 2,2015-074A,2026-06-12T23:23:49.807392,1.00270779,.00007363,6.6819,70.5757,255.3930,271.7863,0,U,41105,999,3846,0,-.109E-5,0
SENTINEL-3A,2016-011A,2026-06-13T22:05:27.399264,14.26739157,.00013847,98.6249,232.3509,102.7487,257.3848,0,U,41335,999,53759,.61916809E-4,.106E-5,0
INSAT-3DR,2016-054A,2026-06-13T22:07:15.538368,1.00270831,.00106265,0.0977,86.8174,187.1290,34.0755,0,U,41752,999,3578,0,-.67E-6,0
HIMAWARI-9,2016-064A,2026-06-13T22:22:38.123616,1.00270150,.00008102,0.0479,148.3842,350.9423,239.3458,0,U,41836,999,3517,0,-.265E-5,0
GOES 16,2016-071A,2026-06-13T21:12:32.434272,1.00270023,.00002097,0.3323,85.5371,285.5683,104.5318,0,U,41866,999,3507,0,-.81E-6,0
FENGYUN 4A,2016-077A,2026-06-13T22:17:46.089888,1.00270325,.00086811,2.3131,80.3232,152.7745,127.3621,0,U,41882,999,3489,0,-.349E-5,0
CYGFM05,2016-078A,2026-06-13T17:11:23.418528,15.56530665,.00067528,34.9574,283.5706,115.6149,244.5273,0,U,41884,999,52821,.326847E-3,.24006E-3,0
CYGFM04,2016-078B,2026-06-13T15:12:28.683648,15.61331969,.00062618,34.9325,251.9875,161.5646,198.5308,0,U,41885,999,52844,.33168208E-3,.29269E-3,0
CYGFM02,2016-078C,2026-06-13T15:23:13.155936,15.64293881,.0007226,34.9406,246.5765,162.7791,197.3182,0,U,41886,999,52861,.35158861E-3,.34896E-3,0
CYGFM01,2016-078D,2026-06-13T16:57:18.872352,15.57202195,.00065444,34.9405,284.7218,108.5594,251.5842,0,U,41887,999,52816,.32548354E-3,.24516E-3,0
CYGFM08,2016-078E,2026-06-13T16:07:32.198016,15.59850919,.00078769,34.9434,264.6224,142.8564,217.2707,0,U,41888,999,52842,.3411213E-3,.28443E-3,0
CYGFM07,2016-078G,2026-06-13T22:49:46.737696,15.59966765,.00067308,34.9447,251.1080,163.9910,196.1029,0,U,41890,999,52849,.34043109E-3,.285E-3,0
CYGFM03,2016-078H,2026-06-13T15:59:23.526528,15.59943966,.00060417,34.9403,254.9438,147.8515,212.2580,0,U,41891,999,52842,.3276291E-3,.27393E-3,0
